IRIDIUM 150             
1 43257U 18030J   25294.53980437  .00000428  00000+0  14587-3 0  9995
2 43257  86.4011  30.2177 0002009  91.7416 268.4010 14.34218595395956
IRIDIUM 143             
1 43258U 18030K   25294.52077530  .00000528  00000+0  18151-3 0  9998
2 43258  86.4013  30.3090 0001736  89.7308 270.4086 14.34221584395887
IRIDIUM 161             
1 43478U 18047C   25294.46290821  .00000665  00000+0  19161-3 0  9997
2 43478  86.4557 188.1992 0002339  83.3561 276.7906 14.43286739390707
IRIDIUM 152             
1 43479U 18047D   25294.63303211  .00000316  00000+0  10584-3 0  9998
2 43479  86.4030 187.9889 0002249  83.8187 276.3265 14.34220547388295
IRIDIUM 147             
1 43480U 18047E   25294.43007026  .00000182  00000+0  58030-4 0  9993
2 43480  86.4034 188.0747 0002114  86.4774 273.6663 14.34219221388264
IRIDIUM 110             
1 43481U 18047F   25294.64571860  .00000269  00000+0  89021-4 0  9999
2 43481  86.4035 188.0700 0002520  89.8024 270.3461 14.34218907388283
IRIDIUM 162             
1 43482U 18047G   25294.45661364  .00000665  00000+0  19173-3 0  9998
2 43482  86.4556 188.0959 0002476  79.5755 280.5725 14.43282666390692
IRIDIUM 160             
1 43569U 18061A   25294.03340704  .00000221  00000+0  71816-4 0  9997
2 43569  86.4000 156.7677 0002267  91.3608 268.7848 14.34219143379093
